<xml>
<item>
<COMMENT>GENERATED VIA SPACETRACK.ORG API</COMMENT>
<ORIGINATOR>18 SPCS</ORIGINATOR>
<NORAD_CAT_ID>55919</NORAD_CAT_ID>
<OBJECT_NAME>STARLINK-5871</OBJECT_NAME>
<OBJECT_TYPE>PAYLOAD</OBJECT_TYPE>
<CLASSIFICATION_TYPE>U</CLASSIFICATION_TYPE>
<INTLDES>23037F</INTLDES>
<EPOCH>2023-10-19 12:25:55</EPOCH>
<EPOCH_MICROSECONDS>801344</EPOCH_MICROSECONDS>
<MEAN_MOTION>14.98338594</MEAN_MOTION>
<ECCENTRICITY>0.0002592</ECCENTRICITY>
<INCLINATION>70</INCLINATION>
<RA_OF_ASC_NODE>343.5412</RA_OF_ASC_NODE>
<ARG_OF_PERICENTER>265.3101</ARG_OF_PERICENTER>
<MEAN_ANOMALY>94.7762</MEAN_ANOMALY>
<EPHEMERIS_TYPE>0</EPHEMERIS_TYPE>
<ELEMENT_SET_NO>999</ELEMENT_SET_NO>
<REV_AT_EPOCH>3284</REV_AT_EPOCH>
<BSTAR>0.000054703</BSTAR>
<MEAN_MOTION_DOT>0.0000056</MEAN_MOTION_DOT>
<MEAN_MOTION_DDOT>0</MEAN_MOTION_DDOT>
<FILE>4042363</FILE>
<TLE_LINE0>0 STARLINK-5871</TLE_LINE0>
<TLE_LINE1>1 55919U 23037F 23292.51800696 .00000560 00000-0 54703-4 0 9991</TLE_LINE1>
<TLE_LINE2>2 55919 70.0000 343.5412 0002592 265.3101 94.7762 14.98338594 32842</TLE_LINE2>
<OBJECT_ID>2023-037F</OBJECT_ID>
<OBJECT_NUMBER>55919</OBJECT_NUMBER>
<SEMIMAJOR_AXIS>6950.166</SEMIMAJOR_AXIS>
<PERIOD>96.106</PERIOD>
<APOGEE>573.833</APOGEE>
<PERIGEE>570.230</PERIGEE>
<DECAYED>0</DECAYED>
</item>
<item>
<COMMENT>GENERATED VIA SPACETRACK.ORG API</COMMENT>
<ORIGINATOR>18 SPCS</ORIGINATOR>
<NORAD_CAT_ID>56488</NORAD_CAT_ID>
<OBJECT_NAME>STARLINK-6204</OBJECT_NAME>
<OBJECT_TYPE>PAYLOAD</OBJECT_TYPE>
<CLASSIFICATION_TYPE>U</CLASSIFICATION_TYPE>
<INTLDES>23064AS</INTLDES>
<EPOCH>2023-10-19 14:49:43</EPOCH>
<EPOCH_MICROSECONDS>718304</EPOCH_MICROSECONDS>
<MEAN_MOTION>15.69921652</MEAN_MOTION>
<ECCENTRICITY>0.0003355</ECCENTRICITY>
<INCLINATION>70</INCLINATION>
<RA_OF_ASC_NODE>150.1237</RA_OF_ASC_NODE>
<ARG_OF_PERICENTER>270.4411</ARG_OF_PERICENTER>
<MEAN_ANOMALY>89.64</MEAN_ANOMALY>
<EPHEMERIS_TYPE>0</EPHEMERIS_TYPE>
<ELEMENT_SET_NO>999</ELEMENT_SET_NO>
<REV_AT_EPOCH>2543</REV_AT_EPOCH>
<BSTAR>0.000029344</BSTAR>
<MEAN_MOTION_DOT>0.00003317</MEAN_MOTION_DOT>
<MEAN_MOTION_DDOT>0</MEAN_MOTION_DDOT>
<FILE>4042363</FILE>
<TLE_LINE0>0 STARLINK-6204</TLE_LINE0>
<TLE_LINE1>1 56488U 23064AS 23292.61786711 .00003317 00000-0 29344-4 0 9991</TLE_LINE1>
<TLE_LINE2>2 56488 70.0000 150.1237 0003355 270.4411 89.6400 15.69921652 25431</TLE_LINE2>
<OBJECT_ID>2023-064AS</OBJECT_ID>
<OBJECT_NUMBER>56488</OBJECT_NUMBER>
<SEMIMAJOR_AXIS>6737.258</SEMIMAJOR_AXIS>
<PERIOD>91.724</PERIOD>
<APOGEE>361.384</APOGEE>
<PERIGEE>356.863</PERIGEE>
<DECAYED>0</DECAYED>
</item>
<item>
<COMMENT>GENERATED VIA SPACETRACK.ORG API</COMMENT>
<ORIGINATOR>18 SPCS</ORIGINATOR>
<NORAD_CAT_ID>56793</NORAD_CAT_ID>
<OBJECT_NAME>STARLINK-6052</OBJECT_NAME>
<OBJECT_TYPE>PAYLOAD</OBJECT_TYPE>
<CLASSIFICATION_TYPE>U</CLASSIFICATION_TYPE>
<INTLDES>23078AC</INTLDES>
<EPOCH>2023-10-19 16:40:53</EPOCH>
<EPOCH_MICROSECONDS>214240</EPOCH_MICROSECONDS>
<MEAN_MOTION>14.993689</MEAN_MOTION>
<ECCENTRICITY>0.0002793</ECCENTRICITY>
<INCLINATION>70</INCLINATION>
<RA_OF_ASC_NODE>23.072</RA_OF_ASC_NODE>
<ARG_OF_PERICENTER>273.416</ARG_OF_PERICENTER>
<MEAN_ANOMALY>86.668</MEAN_ANOMALY>
<EPHEMERIS_TYPE>0</EPHEMERIS_TYPE>
<ELEMENT_SET_NO>999</ELEMENT_SET_NO>
<REV_AT_EPOCH>2206</REV_AT_EPOCH>
<BSTAR>-0.0008001</BSTAR>
<MEAN_MOTION_DOT>-0.00009887</MEAN_MOTION_DOT>
<MEAN_MOTION_DDOT>0</MEAN_MOTION_DDOT>
<FILE>4042947</FILE>
<TLE_LINE0>0 STARLINK-6052</TLE_LINE0>
<TLE_LINE1>1 56793U 23078AC 23292.69506035 -.00009887 00000-0 -80010-3 0 9998</TLE_LINE1>
<TLE_LINE2>2 56793 70.0000 23.0720 0002793 273.4160 86.6680 14.99368900 22060</TLE_LINE2>
<OBJECT_ID>2023-078AC</OBJECT_ID>
<OBJECT_NUMBER>56793</OBJECT_NUMBER>
<SEMIMAJOR_AXIS>6946.982</SEMIMAJOR_AXIS>
<PERIOD>96.040</PERIOD>
<APOGEE>570.787</APOGEE>
<PERIGEE>566.907</PERIGEE>
<DECAYED>0</DECAYED>
</item>
<item>
<COMMENT>GENERATED VIA SPACETRACK.ORG API</COMMENT>
<ORIGINATOR>18 SPCS</ORIGINATOR>
<NORAD_CAT_ID>55305</NORAD_CAT_ID>
<OBJECT_NAME>STARLINK-5316</OBJECT_NAME>
<OBJECT_TYPE>PAYLOAD</OBJECT_TYPE>
<CLASSIFICATION_TYPE>U</CLASSIFICATION_TYPE>
<INTLDES>23010AN</INTLDES>
<EPOCH>2023-10-19 19:09:51</EPOCH>
<EPOCH_MICROSECONDS>65280</EPOCH_MICROSECONDS>
<MEAN_MOTION>14.98335698</MEAN_MOTION>
<ECCENTRICITY>0.0002651</ECCENTRICITY>
<INCLINATION>70</INCLINATION>
<RA_OF_ASC_NODE>62.9947</RA_OF_ASC_NODE>
<ARG_OF_PERICENTER>268.0393</ARG_OF_PERICENTER>
<MEAN_ANOMALY>92.0463</MEAN_ANOMALY>
<EPHEMERIS_TYPE>0</EPHEMERIS_TYPE>
<ELEMENT_SET_NO>999</ELEMENT_SET_NO>
<REV_AT_EPOCH>4267</REV_AT_EPOCH>
<BSTAR>-0.0001197</BSTAR>
<MEAN_MOTION_DOT>-0.00001521</MEAN_MOTION_DOT>
<MEAN_MOTION_DDOT>0</MEAN_MOTION_DDOT>
<FILE>4042947</FILE>
<TLE_LINE0>0 STARLINK-5316</TLE_LINE0>
<TLE_LINE1>1 55305U 23010AN 23292.79850770 -.00001521 00000-0 -11970-3 0 9997</TLE_LINE1>
<TLE_LINE2>2 55305 70.0000 62.9947 0002651 268.0393 92.0463 14.98335698 42678</TLE_LINE2>
<OBJECT_ID>2023-010AN</OBJECT_ID>
<OBJECT_NUMBER>55305</OBJECT_NUMBER>
<SEMIMAJOR_AXIS>6950.175</SEMIMAJOR_AXIS>
<PERIOD>96.107</PERIOD>
<APOGEE>573.883</APOGEE>
<PERIGEE>570.198</PERIGEE>
<DECAYED>0</DECAYED>
</item>
<item>
<COMMENT>GENERATED VIA SPACETRACK.ORG API</COMMENT>
<ORIGINATOR>18 SPCS</ORIGINATOR>
<NORAD_CAT_ID>55919</NORAD_CAT_ID>
<OBJECT_NAME>STARLINK-5871</OBJECT_NAME>
<OBJECT_TYPE>PAYLOAD</OBJECT_TYPE>
<CLASSIFICATION_TYPE>U</CLASSIFICATION_TYPE>
<INTLDES>23037F</INTLDES>
<EPOCH>2023-10-19 20:26:36</EPOCH>
<EPOCH_MICROSECONDS>430656</EPOCH_MICROSECONDS>
<MEAN_MOTION>14.98334368</MEAN_MOTION>
<ECCENTRICITY>0.0002556</ECCENTRICITY>
<INCLINATION>70</INCLINATION>
<RA_OF_ASC_NODE>342.6988</RA_OF_ASC_NODE>
<ARG_OF_PERICENTER>279.3268</ARG_OF_PERICENTER>
<MEAN_ANOMALY>80.7602</MEAN_ANOMALY>
<EPHEMERIS_TYPE>0</EPHEMERIS_TYPE>
<ELEMENT_SET_NO>999</ELEMENT_SET_NO>
<REV_AT_EPOCH>3289</REV_AT_EPOCH>
<BSTAR>0.0000075131</BSTAR>
<MEAN_MOTION_DOT>-0.00000003</MEAN_MOTION_DOT>
<MEAN_MOTION_DDOT>0</MEAN_MOTION_DDOT>
<FILE>4042947</FILE>
<TLE_LINE0>0 STARLINK-5871</TLE_LINE0>
<TLE_LINE1>1 55919U 23037F 23292.85181054 -.00000003 00000-0 75131-5 0 9990</TLE_LINE1>
<TLE_LINE2>2 55919 70.0000 342.6988 0002556 279.3268 80.7602 14.98334368 32897</TLE_LINE2>
<OBJECT_ID>2023-037F</OBJECT_ID>
<OBJECT_NUMBER>55919</OBJECT_NUMBER>
<SEMIMAJOR_AXIS>6950.179</SEMIMAJOR_AXIS>
<PERIOD>96.107</PERIOD>
<APOGEE>573.821</APOGEE>
<PERIGEE>570.268</PERIGEE>
<DECAYED>0</DECAYED>
</item>
<item>
<COMMENT>GENERATED VIA SPACETRACK.ORG API</COMMENT>
<ORIGINATOR>18 SPCS</ORIGINATOR>
<NORAD_CAT_ID>56496</NORAD_CAT_ID>
<OBJECT_NAME>STARLINK-5526</OBJECT_NAME>
<OBJECT_TYPE>PAYLOAD</OBJECT_TYPE>
<CLASSIFICATION_TYPE>U</CLASSIFICATION_TYPE>
<INTLDES>23064BA</INTLDES>
<EPOCH>2023-10-19 22:27:06</EPOCH>
<EPOCH_MICROSECONDS>952032</EPOCH_MICROSECONDS>
<MEAN_MOTION>15.69928705</MEAN_MOTION>
<ECCENTRICITY>0.0003505</ECCENTRICITY>
<INCLINATION>70</INCLINATION>
<RA_OF_ASC_NODE>149.2224</RA_OF_ASC_NODE>
<ARG_OF_PERICENTER>268.5592</ARG_OF_PERICENTER>
<MEAN_ANOMALY>91.5202</MEAN_ANOMALY>
<EPHEMERIS_TYPE>0</EPHEMERIS_TYPE>
<ELEMENT_SET_NO>999</ELEMENT_SET_NO>
<REV_AT_EPOCH>2548</REV_AT_EPOCH>
<BSTAR>0.000047553</BSTAR>
<MEAN_MOTION_DOT>0.0000551</MEAN_MOTION_DOT>
<MEAN_MOTION_DDOT>0</MEAN_MOTION_DDOT>
<FILE>4042947</FILE>
<TLE_LINE0>0 STARLINK-5526</TLE_LINE0>
<TLE_LINE1>1 56496U 23064BA 23292.93549713 .00005510 00000-0 47553-4 0 9993</TLE_LINE1>
<TLE_LINE2>2 56496 70.0000 149.2224 0003505 268.5592 91.5202 15.69928705 25483</TLE_LINE2>
<OBJECT_ID>2023-064BA</OBJECT_ID>
<OBJECT_NUMBER>56496</OBJECT_NUMBER>
<SEMIMAJOR_AXIS>6737.238</SEMIMAJOR_AXIS>
<PERIOD>91.724</PERIOD>
<APOGEE>361.464</APOGEE>
<PERIGEE>356.742</PERIGEE>
<DECAYED>0</DECAYED>
</item>
<item>
<COMMENT>GENERATED VIA SPACETRACK.ORG API</COMMENT>
<ORIGINATOR>18 SPCS</ORIGINATOR>
<NORAD_CAT_ID>56489</NORAD_CAT_ID>
<OBJECT_NAME>STARLINK-5923</OBJECT_NAME>
<OBJECT_TYPE>PAYLOAD</OBJECT_TYPE>
<CLASSIFICATION_TYPE>U</CLASSIFICATION_TYPE>
<INTLDES>23064AT</INTLDES>
<EPOCH>2023-10-19 22:28:01</EPOCH>
<EPOCH_MICROSECONDS>650144</EPOCH_MICROSECONDS>
<MEAN_MOTION>15.6993599</MEAN_MOTION>
<ECCENTRICITY>0.0003538</ECCENTRICITY>
<INCLINATION>70</INCLINATION>
<RA_OF_ASC_NODE>149.2231</RA_OF_ASC_NODE>
<ARG_OF_PERICENTER>270.7003</ARG_OF_PERICENTER>
<MEAN_ANOMALY>89.3787</MEAN_ANOMALY>
<EPHEMERIS_TYPE>0</EPHEMERIS_TYPE>
<ELEMENT_SET_NO>999</ELEMENT_SET_NO>
<REV_AT_EPOCH>2548</REV_AT_EPOCH>
<BSTAR>0.00008134</BSTAR>
<MEAN_MOTION_DOT>0.00009584</MEAN_MOTION_DOT>
<MEAN_MOTION_DDOT>0</MEAN_MOTION_DDOT>
<FILE>4042947</FILE>
<TLE_LINE0>0 STARLINK-5923</TLE_LINE0>
<TLE_LINE1>1 56489U 23064AT 23292.93613021 .00009584 00000-0 81340-4 0 9996</TLE_LINE1>
<TLE_LINE2>2 56489 70.0000 149.2231 0003538 270.7003 89.3787 15.69935990 25488</TLE_LINE2>
<OBJECT_ID>2023-064AT</OBJECT_ID>
<OBJECT_NUMBER>56489</OBJECT_NUMBER>
<SEMIMAJOR_AXIS>6737.217</SEMIMAJOR_AXIS>
<PERIOD>91.723</PERIOD>
<APOGEE>361.466</APOGEE>
<PERIGEE>356.699</PERIGEE>
<DECAYED>0</DECAYED>
</item>

</xml>
